{"type": "FeatureCollection", "features": [ {"type": "Feature", "properties": {"norad_id": 41836, "name": "HIMAWARI-9", "group": "weather", "lat": -0.0015531851384289514, "lon": -0.22690113268675838, "alt_km": 35781.84591081686, "timestamp": "2025-12-06T09:34:16.561530+00:00", "meta": {"OBJECT_NAME": "HIMAWARI-9", "OBJECT_ID": "2016-064A", "EPOCH": "2025-12-05T16:04:44.799744", "MEAN_MOTION": 1.00271955, "ECCENTRICITY": 0.00019742, "INCLINATION": 0.0132, "RA_OF_ASC_NODE": 58.9298, "ARG_OF_PERICENTER": 241.9648, "MEAN_ANOMALY": 155.7705, "EPHEMERIS_TYPE": 0, "CLASSIFICATION_TYPE": "U", "NORAD_CAT_ID": 41836, "ELEMENT_SET_NO": 999, "REV_AT_EPOCH": 3327, "BSTAR": 0, "MEAN_MOTION_DOT": -2.64e-06, "MEAN_MOTION_DDOT": 0}, "tle": {"line1": "1 41836U 16064A   25339.66996296 -.00000264  00000+0  00000+0 0  9995", "line2": "2 41836   0.0132  58.9298 0001974 241.9648 155.7705  1.00271955 33271"}}, "geometry": {"type": "Point", "coordinates": [-0.22690113268675838, -0.0015531851384289514]}}, {"type": "Feature", "properties": {"norad_id": 41866, "name": "GOES 16", "group": "weather", "lat": 0.028829533229130785, "lon": 114.30168861607746, "alt_km": 35798.41681955846, "timestamp": "2025-12-06T09:34:16.561543+00:00", "meta": {"OBJECT_NAME": "GOES 16", "OBJECT_ID": "2016-071A", "EPOCH": "2025-12-05T21:45:32.932224", "MEAN_MOTION": 1.00271223, "ECCENTRICITY": 0.00035325, "INCLINATION": 0.0617, "RA_OF_ASC_NODE": 109.3908, "ARG_OF_PERICENTER": 149.3785, "MEAN_ANOMALY": 37.9024, "EPHEMERIS_TYPE": 0, "CLASSIFICATION_TYPE": "U", "NORAD_CAT_ID": 41866, "ELEMENT_SET_NO": 999, "REV_AT_EPOCH": 3316, "BSTAR": 0, "MEAN_MOTION_DOT": -8.2e-07, "MEAN_MOTION_DDOT": 0}, "tle": {"line1": "1 41866U 16071A   25339.90663116 -.00000082  00000+0  00000+0 0  9993", "line2": "2 41866   0.0617 109.3908 0003532 149.3785  37.9024  1.00271223 33167"}}, "geometry": {"type": "Point", "coordinates": [114.30168861607746, 0.028829533229130785]}}, {"type": "Feature", "properties": {"norad_id": 41882, "name": "FENGYUN 4A", "group": "weather", "lat": -1.8039573464584089, "lon": -17.159772385608235, "alt_km": 35794.70636938609, "timestamp": "2025-12-06T09:34:16.561555+00:00", "meta": {"OBJECT_NAME": "FENGYUN 4A", "OBJECT_ID": "2016-077A", "EPOCH": "2025-12-05T20:47:51.810432", "MEAN_MOTION": 1.00276894, "ECCENTRICITY": 0.00050414, "INCLINATION": 1.8308, "RA_OF_ASC_NODE": 82.4599, "ARG_OF_PERICENTER": 142.8916, "MEAN_ANOMALY": 285.3135, "EPHEMERIS_TYPE": 0, "CLASSIFICATION_TYPE": "U", "NORAD_CAT_ID": 41882, "ELEMENT_SET_NO": 999, "REV_AT_EPOCH": 3299, "BSTAR": 0, "MEAN_MOTION_DOT": -3.48e-06, "MEAN_MOTION_DDOT": 0}, "tle": {"line1": "1 41882U 16077A   25339.86657188 -.00000348  00000+0  00000+0 0  9999", "line2": "2 41882   1.8308  82.4599 0005041 142.8916 285.3135  1.00276894 32990"}}, "geometry": {"type": "Point", "coordinates": [-17.159772385608235, -1.8039573464584089]}}, {"type": "Feature", "properties": {"norad_id": 41884, "name": "CYGFM05", "group": "weather", "lat": -34.125755459162804, "lon": -15.524214512114039, "alt_km": 431.23350732847666, "timestamp": "2025-12-06T09:34:16.561566+00:00", "meta": {"OBJECT_NAME": "CYGFM05", "OBJECT_ID": "2016-078A", "EPOCH": "2025-12-05T16:58:33.047616", "MEAN_MOTION": 15.47251578, "ECCENTRICITY": 0.0009401, "INCLINATION": 34.9591, "RA_OF_ASC_NODE": 93.0531, "ARG_OF_PERICENTER": 116.8148, "MEAN_ANOMALY": 243.3536, "EPHEMERIS_TYPE": 0, "CLASSIFICATION_TYPE": "U", "NORAD_CAT_ID": 41884, "ELEMENT_SET_NO": 999, "REV_AT_EPOCH": 49867, "BSTAR": 0.00055902802, "MEAN_MOTION_DOT": 0.00029452, "MEAN_MOTION_DDOT": 0}, "tle": {"line1": "1 41884U 16078A   25339.70732694  .00029452  00000+0  55903-3 0  9993", "line2": "2 41884  34.9591  93.0531 0009401 116.8148 243.3536 15.47251578498677"}}, "geometry": {"type": "Point", "coordinates": [-15.524214512114039, -34.125755459162804]}}, {"type": "Feature", "properties": {"norad_id": 41885, "name": "CYGFM04", "group": "weather", "lat": 33.67478508762048, "lon": 136.15186887108558, "alt_km": 409.25033668290234, "timestamp": "2025-12-06T09:34:16.561577+00:00", "meta": {"OBJECT_NAME": "CYGFM04", "OBJECT_ID": "2016-078B", "EPOCH": "2025-12-05T22:25:32.911680", "MEAN_MOTION": 15.49939576, "ECCENTRICITY": 0.00086144, "INCLINATION": 34.9354, "RA_OF_ASC_NODE": 66.5436, "ARG_OF_PERICENTER": 148.2423, "MEAN_ANOMALY": 211.8819, "EPHEMERIS_TYPE": 0, "CLASSIFICATION_TYPE": "U", "NORAD_CAT_ID": 41885, "ELEMENT_SET_NO": 999, "REV_AT_EPOCH": 49888, "BSTAR": 0.00051086426, "MEAN_MOTION_DOT": 0.00029575, "MEAN_MOTION_DDOT": 0}, "tle": {"line1": "1 41885U 16078B   25339.93440870  .00029575  00000+0  51086-3 0  9995", "line2": "2 41885  34.9354  66.5436 0008614 148.2423 211.8819 15.49939576498884"}}, "geometry": {"type": "Point", "coordinates": [136.15186887108558, 33.67478508762048]}}, {"type": "Feature", "properties": {"norad_id": 41886, "name": "CYGFM02", "group": "weather", "lat": 28.81544505283279, "lon": 113.88865716264583, "alt_km": 407.9693977031793, "timestamp": "2025-12-06T09:34:16.561588+00:00", "meta": {"OBJECT_NAME": "CYGFM02", "OBJECT_ID": "2016-078C", "EPOCH": "2025-12-05T22:30:50.003136", "MEAN_MOTION": 15.51291349, "ECCENTRICITY": 0.00103484, "INCLINATION": 34.9442, "RA_OF_ASC_NODE": 64.9325, "ARG_OF_PERICENTER": 147.7014, "MEAN_ANOMALY": 212.4344, "EPHEMERIS_TYPE": 0, "CLASSIFICATION_TYPE": "U", "NORAD_CAT_ID": 41886, "ELEMENT_SET_NO": 999, "REV_AT_EPOCH": 49901, "BSTAR": 0.00052224051, "MEAN_MOTION_DOT": 0.00031761, "MEAN_MOTION_DDOT": 0}, "tle": {"line1": "1 41886U 16078C   25339.93807874  .00031761  00000+0  52224-3 0  9992", "line2": "2 41886  34.9442  64.9325 0010348 147.7014 212.4344 15.51291349499017"}}, "geometry": {"type": "Point", "coordinates": [113.88865716264583, 28.81544505283279]}}, {"type": "Feature", "properties": {"norad_id": 41887, "name": "CYGFM01", "group": "weather", "lat": -32.7000573813499, "lon": 24.0834001095449, "alt_km": 431.0303077308854, "timestamp": "2025-12-06T09:34:16.561599+00:00", "meta": {"OBJECT_NAME": "CYGFM01", "OBJECT_ID": "2016-078D", "EPOCH": "2025-12-05T18:23:47.456736", "MEAN_MOTION": 15.47824248, "ECCENTRICITY": 0.00089679, "INCLINATION": 34.9423, "RA_OF_ASC_NODE": 95.0659, "ARG_OF_PERICENTER": 107.7777, "MEAN_ANOMALY": 252.3924, "EPHEMERIS_TYPE": 0, "CLASSIFICATION_TYPE": "U", "NORAD_CAT_ID": 41887, "ELEMENT_SET_NO": 999, "REV_AT_EPOCH": 49862, "BSTAR": 0.00057467531, "MEAN_MOTION_DOT": 0.00030892, "MEAN_MOTION_DDOT": 0}, "tle": {"line1": "1 41887U 16078D   25339.76652149  .00030892  00000+0  57468-3 0  9996", "line2": "2 41887  34.9423  95.0659 0008967 107.7777 252.3924 15.47824248498626"}}, "geometry": {"type": "Point", "coordinates": [24.0834001095449, -32.7000573813499]}}, {"type": "Feature", "properties": {"norad_id": 41888, "name": "CYGFM08", "group": "weather", "lat": -25.888607776489806, "lon": 29.971650402312353, "alt_km": 428.27594347029117, "timestamp": "2025-12-06T09:34:16.561610+00:00", "meta": {"OBJECT_NAME": "CYGFM08", "OBJECT_ID": "2016-078E", "EPOCH": "2025-12-05T22:57:29.299968", "MEAN_MOTION": 15.49018099, "ECCENTRICITY": 0.00107787, "INCLINATION": 34.946, "RA_OF_ASC_NODE": 76.8947, "ARG_OF_PERICENTER": 135.6475, "MEAN_ANOMALY": 224.5112, "EPHEMERIS_TYPE": 0, "CLASSIFICATION_TYPE": "U", "NORAD_CAT_ID": 41888, "ELEMENT_SET_NO": 999, "REV_AT_EPOCH": 49888, "BSTAR": 0.00051415342, "MEAN_MOTION_DOT": 0.00028831, "MEAN_MOTION_DDOT": 0}, "tle": {"line1": "1 41888U 16078E   25339.95658912  .00028831  00000+0  51415-3 0  9998", "line2": "2 41888  34.9460  76.8947 0010778 135.6475 224.5112 15.49018099498882"}}, "geometry": {"type": "Point", "coordinates": [29.971650402312353, -25.888607776489806]}}, {"type": "Feature", "properties": {"norad_id": 41890, "name": "CYGFM07", "group": "weather", "lat": -33.596996751031796, "lon": -9.024322435691877, "alt_km": 423.5380801600886, "timestamp": "2025-12-06T09:34:16.561621+00:00", "meta": {"OBJECT_NAME": "CYGFM07", "OBJECT_ID": "2016-078G", "EPOCH": "2025-12-05T23:04:17.321376", "MEAN_MOTION": 15.49591135, "ECCENTRICITY": 0.00091895, "INCLINATION": 34.9479, "RA_OF_ASC_NODE": 65.8818, "ARG_OF_PERICENTER": 154.816, "MEAN_ANOMALY": 205.3011, "EPHEMERIS_TYPE": 0, "CLASSIFICATION_TYPE": "U", "NORAD_CAT_ID": 41890, "ELEMENT_SET_NO": 999, "REV_AT_EPOCH": 49890, "BSTAR": 0.00051239643, "MEAN_MOTION_DOT": 0.00029304, "MEAN_MOTION_DDOT": 0}, "tle": {"line1": "1 41890U 16078G   25339.96131159  .00029304  00000+0  51240-3 0  9993", "line2": "2 41890  34.9479  65.8818 0009189 154.8160 205.3011 15.49591135498903"}}, "geometry": {"type": "Point", "coordinates": [-9.024322435691877, -33.596996751031796]}}, {"type": "Feature", "properties": {"norad_id": 41891, "name": "CYGFM03", "group": "weather", "lat": 29.111130596714116, "lon": -167.96189951887834, "alt_km": 407.3685542979938, "timestamp": "2025-12-06T09:34:16.561631+00:00", "meta": {"OBJECT_NAME": "CYGFM03", "OBJECT_ID": "2016-078H", "EPOCH": "2025-12-05T16:02:22.835040", "MEAN_MOTION": 15.49479952, "ECCENTRICITY": 0.0008383, "INCLINATION": 34.9435, "RA_OF_ASC_NODE": 69.7162, "ARG_OF_PERICENTER": 138.0826, "MEAN_ANOMALY": 222.0539, "EPHEMERIS_TYPE": 0, "CLASSIFICATION_TYPE": "U", "NORAD_CAT_ID": 41891, "ELEMENT_SET_NO": 999, "REV_AT_EPOCH": 49883, "BSTAR": 0.00057747678, "MEAN_MOTION_DOT": 0.00032908, "MEAN_MOTION_DDOT": 0}, "tle": {"line1": "1 41891U 16078H   25339.66831985  .00032908  00000+0  57748-3 0  9998", "line2": "2 41891  34.9435  69.7162 0008383 138.0826 222.0539 15.49479952498834"}}, "geometry": {"type": "Point", "coordinates": [-167.96189951887834, 29.111130596714116]}}]}